{
  "type": "FeatureCollection",
  "features": [
    {
      "type": "Feature",
      "properties": {
        "norad_id": 66590,
        "name": "STARLINK-35429",
        "group": "last-30-days",
        "lat": -41.29293280289619,
        "lon": 14.376168444848503,
        "alt_km": 445.46604997019585,
        "timestamp": "2025-12-24T14:43:27.718771+00:00",
        "meta_object_name": "STARLINK-35429",
        "meta_object_id": "2025-270C",
        "meta_epoch": "2025-12-23T18:57:05.300352",
        "meta_mean_motion": 15.40759913,
        "meta_eccentricity": 0.00021935,
        "meta_inclination": 43.0027,
        "meta_ra_of_asc_node": 128.6594,
        "meta_arg_of_pericenter": 269.5993,
        "meta_mean_anomaly": 90.4612,
        "meta_ephemeris_type": 0,
        "meta_classification_type": "U",
        "meta_norad_cat_id": 66590,
        "meta_element_set_no": 999,
        "meta_rev_at_epoch": 616,
        "meta_bstar": 0.0014864851,
        "meta_mean_motion_dot": 0.00062426,
        "meta_mean_motion_ddot": 0,
        "tle_line1": "1 66590U 25270C   25357.78964468  .00062426  00000+0  14865-2 0  9991",
        "tle_line2": "2 66590  43.0027 128.6594 0002193 269.5993  90.4612 15.40759913  6166"
      },
      "geometry": {
        "type": "Point",
        "coordinates": [
          14.376168444848503,
          -41.29293280289619
        ]
      }
    },
    {
      "type": "Feature",
      "properties": {
        "norad_id": 66591,
        "name": "STARLINK-36058",
        "group": "last-30-days",
        "lat": -12.106228675236993,
        "lon": 110.39136734258616,
        "alt_km": 444.7711819371225,
        "timestamp": "2025-12-24T14:43:27.718782+00:00",
        "meta_object_name": "STARLINK-36058",
        "meta_object_id": "2025-270D",
        "meta_epoch": "2025-12-24T00:00:00.998784",
        "meta_mean_motion": 15.40684723,
        "meta_eccentricity": 0.0001443,
        "meta_inclination": 43.0007,
        "meta_ra_of_asc_node": 127.2349,
        "meta_arg_of_pericenter": 277.3057,
        "meta_mean_anomaly": 258.0125,
        "meta_ephemeris_type": 0,
        "meta_classification_type": "U",
        "meta_norad_cat_id": 66591,
        "meta_element_set_no": 999,
        "meta_rev_at_epoch": 599,
        "meta_bstar": 0.00024874,
        "meta_mean_motion_dot": 0.00010095,
        "meta_mean_motion_ddot": 0,
        "tle_line1": "1 66591U 25270D   25358.00001156  .00010095  00000+0  24874-3 0  9991",
        "tle_line2": "2 66591  43.0007 127.2349 0001443 277.3057 258.0125 15.40684723  5990"
      },
      "geometry": {
        "type": "Point",
        "coordinates": [
          110.39136734258616,
          -12.106228675236993
        ]
      }
    },
    {
      "type": "Feature",
      "properties": {
        "norad_id": 66592,
        "name": "STARLINK-36066",
        "group": "last-30-days",
        "lat": 36.856720922264934,
        "lon": -109.31438574309266,
        "alt_km": 438.9011154850341,
        "timestamp": "2025-12-24T14:43:27.718792+00:00",
        "meta_object_name": "STARLINK-36066",
        "meta_object_id": "2025-270E",
        "meta_epoch": "2025-12-24T01:45:59.627520",
        "meta_mean_motion": 15.4071983,
        "meta_eccentricity": 0.00014935,
        "meta_inclination": 43.0005,
        "meta_ra_of_asc_node": 127.3548,
        "meta_arg_of_pericenter": 281.5377,
        "meta_mean_anomaly": 78.5312,
        "meta_ephemeris_type": 0,
        "meta_classification_type": "U",
        "meta_norad_cat_id": 66592,
        "meta_element_set_no": 999,
        "meta_rev_at_epoch": 599,
        "meta_bstar": 0.0014926122,
        "meta_mean_motion_dot": 0.00062601,
        "meta_mean_motion_ddot": 0,
        "tle_line1": "1 66592U 25270E   25358.07360680  .00062601  00000+0  14926-2 0  9995",
        "tle_line2": "2 66592  43.0005 127.3548 0001493 281.5377  78.5312 15.40719830  5999"
      },
      "geometry": {
        "type": "Point",
        "coordinates": [
          -109.31438574309266,
          36.856720922264934
        ]
      }
    },
    {
      "type": "Feature",
      "properties": {
        "norad_id": 66593,
        "name": "STARLINK-36031",
        "group": "last-30-days",
        "lat": -17.08162899457633,
        "lon": -36.71661935852877,
        "alt_km": 445.4182418946766,
        "timestamp": "2025-12-24T14:43:27.718802+00:00",
        "meta_object_name": "STARLINK-36031",
        "meta_object_id": "2025-270F",
        "meta_epoch": "2025-12-24T01:23:24.929952",
        "meta_mean_motion": 15.4074384,
        "meta_eccentricity": 8.634e-05,
        "meta_inclination": 43.0006,
        "meta_ra_of_asc_node": 127.2322,
        "meta_arg_of_pericenter": 287.0382,
        "meta_mean_anomaly": 73.038,
        "meta_ephemeris_type": 0,
        "meta_classification_type": "U",
        "meta_norad_cat_id": 66593,
        "meta_element_set_no": 999,
        "meta_rev_at_epoch": 609,
        "meta_bstar": 0.0010050027,
        "meta_mean_motion_dot": 0.0004197,
        "meta_mean_motion_ddot": 0,
        "tle_line1": "1 66593U 25270F   25358.05792743  .00041970  00000+0  10050-2 0  9993",
        "tle_line2": "2 66593  43.0006 127.2322 0000863 287.0382  73.0380 15.40743840  6092"
      },
      "geometry": {
        "type": "Point",
        "coordinates": [
          -36.71661935852877,
          -17.08162899457633
        ]
      }
    },
    {
      "type": "Feature",
      "properties": {
        "norad_id": 66594,
        "name": "STARLINK-36032",
        "group": "last-30-days",
        "lat": -33.95459629864169,
        "lon": 77.52878255436079,
        "alt_km": 444.6353415339199,
        "timestamp": "2025-12-24T14:43:27.718815+00:00",
        "meta_object_name": "STARLINK-36032",
        "meta_object_id": "2025-270G",
        "meta_epoch": "2025-12-23T15:37:29.022240",
        "meta_mean_motion": 15.40717156,
        "meta_eccentricity": 0.00031713,
        "meta_inclination": 43.0045,
        "meta_ra_of_asc_node": 129.3366,
        "meta_arg_of_pericenter": 281.74,
        "meta_mean_anomaly": 78.3101,
        "meta_ephemeris_type": 0,
        "meta_classification_type": "U",
        "meta_norad_cat_id": 66594,
        "meta_element_set_no": 999,
        "meta_rev_at_epoch": 584,
        "meta_bstar": 0.0010129221,
        "meta_mean_motion_dot": 0.00042272,
        "meta_mean_motion_ddot": 0,
        "tle_line1": "1 66594U 25270G   25357.65103035  .00042272  00000+0  10129-2 0  9992",
        "tle_line2": "2 66594  43.0045 129.3366 0003171 281.7400  78.3101 15.40717156  5846"
      },
      "geometry": {
        "type": "Point",
        "coordinates": [
          77.52878255436079,
          -33.95459629864169
        ]
      }
    },
    {
      "type": "Feature",
      "properties": {
        "norad_id": 66595,
        "name": "STARLINK-35711",
        "group": "last-30-days",
        "lat": 21.090365626758995,
        "lon": 148.02574962445166,
        "alt_km": 441.53387766144624,
        "timestamp": "2025-12-24T14:43:27.718826+00:00",
        "meta_object_name": "STARLINK-35711",
        "meta_object_id": "2025-270H",
        "meta_epoch": "2025-12-24T08:00:03.000384",
        "meta_mean_motion": 15.40645202,
        "meta_eccentricity": 0.00015309,
        "meta_inclination": 43.0007,
        "meta_ra_of_asc_node": 125.1923,
        "meta_arg_of_pericenter": 251.611,
        "meta_mean_anomaly": 24.6525,
        "meta_ephemeris_type": 0,
        "meta_classification_type": "U",
        "meta_norad_cat_id": 66595,
        "meta_element_set_no": 999,
        "meta_rev_at_epoch": 610,
        "meta_bstar": 0.0016953867,
        "meta_mean_motion_dot": 0.0007105,
        "meta_mean_motion_ddot": 0,
        "tle_line1": "1 66595U 25270H   25358.33336806  .00071050  00000+0  16954-2 0  9991",
        "tle_line2": "2 66595  43.0007 125.1923 0001530 251.6110  24.6525 15.40645202  6105"
      },
      "geometry": {
        "type": "Point",
        "coordinates": [
          148.02574962445166,
          21.090365626758995
        ]
      }
    },
    {
      "type": "Feature",
      "properties": {
        "norad_id": 66596,
        "name": "STARLINK-35811",
        "group": "last-30-days",
        "lat": 42.816597183594624,
        "lon": -139.6790197069324,
        "alt_km": 435.90746101010154,
        "timestamp": "2025-12-24T14:43:27.718837+00:00",
        "meta_object_name": "STARLINK-35811",
        "meta_object_id": "2025-270J",
        "meta_epoch": "2025-12-22T18:45:23.391072",
        "meta_mean_motion": 15.40753898,
        "meta_eccentricity": 0.00011739,
        "meta_inclination": 42.9952,
        "meta_ra_of_asc_node": 134.8575,
        "meta_arg_of_pericenter": 40.5321,
        "meta_mean_anomaly": 319.5623,
        "meta_ephemeris_type": 0,
        "meta_classification_type": "U",
        "meta_norad_cat_id": 66596,
        "meta_element_set_no": 999,
        "meta_rev_at_epoch": 600,
        "meta_bstar": 0.0013359196,
        "meta_mean_motion_dot": 0.00056012,
        "meta_mean_motion_ddot": 0,
        "tle_line1": "1 66596U 25270J   25356.78152073  .00056012  00000+0  13359-2 0  9998",
        "tle_line2": "2 66596  42.9952 134.8575 0001173  40.5321 319.5623 15.40753898  6000"
      },
      "geometry": {
        "type": "Point",
        "coordinates": [
          -139.6790197069324,
          42.816597183594624
        ]
      }
    }
  ]
}